[{"OBJECT_NAME":"UM5-EOSAT","OBJECT_ID":"2024-149CR","EPOCH":"2026-03-09T17:21:09.122400","MEAN_MOTION":15.00894746,"ECCENTRICITY":0.00087192,"INCLINATION":97.6855,"RA_OF_ASC_NODE":148.6787,"ARG_OF_PERICENTER":107.8964,"MEAN_ANOMALY":252.3212,"EPHEMERIS_TYPE":0,"CLASSIFICATION_TYPE":"U","NORAD_CAT_ID":60555,"ELEMENT_SET_NO":999,"REV_AT_EPOCH":8529,"BSTAR":0.00036077282,"MEAN_MOTION_DOT":4.537e-5,"MEAN_MOTION_DDOT":0},{"OBJECT_NAME":"STARLINK-34524","OBJECT_ID":"2025-129V","EPOCH":"2026-03-09T10:51:52.549920","MEAN_MOTION":14.9833795,"ECCENTRICITY":0.00030047,"INCLINATION":70.0013,"RA_OF_ASC_NODE":74.9812,"ARG_OF_PERICENTER":266.741,"MEAN_ANOMALY":93.3405,"EPHEMERIS_TYPE":0,"CLASSIFICATION_TYPE":"U","NORAD_CAT_ID":64431,"ELEMENT_SET_NO":999,"REV_AT_EPOCH":4119,"BSTAR":-0.00085865845,"MEAN_MOTION_DOT":-0.00010325,"MEAN_MOTION_DDOT":0}]
